43929,IRIDIUM 171,2019,100.4,860.0,+,86.4,Active,1,LEO,USA,USA,Commercial/Government,Communications,Falcon,1 43929U 19002H   24213.61586748 -.00000015  00000+0 -12413-4 0  9998,2 43929  86.3958 280.2987 0001993  92.6246 267.5178 14.34217446290693,14.34217446,0.0001993,LEO
43930,IRIDIUM 170,2019,97.81,860.0,+,86.61,Active,1,LEO,USA,USA,Commercial/Government,Communications,Falcon,1 43930U 19002J   24212.21554746  .00001666  00000+0  26014-3 0  9990,2 43930  86.6081 280.6968 0002323  93.1384 267.0099 14.72264920298185,14.7226492,0.0002323,LEO
43931,IRIDIUM 167,2019,100.4,860.0,+,86.39,Active,1,LEO,USA,USA,Commercial/Government,Communications,Falcon,1 43931U 19002K   24212.63276316  .00000347  00000+0  11688-3 0  9997,2 43931  86.3950 280.4957 0002231  90.9565 269.1886 14.34220069290552,14.34220069,0.0002231,LEO
56726,IRIDIUM 181,2023,99.75,-1.0,+,86.87,Active,0,LEO,USA,USA,Unknown,Unknown,Unknown,1 56726U 23068S   24213.60832556  .00000700  00000+0  20108-3 0  9992,2 56726  86.8669 335.9820 0002223  89.0600 271.0857 14.43585371 63542,14.43585371,0.0002223,LEO
56727,IRIDIUM 177,2023,97.28,-1.0,+,86.2,Active,0,LEO,USA,USA,Unknown,Unknown,Unknown,1 56727U 23068T   24212.21984169  .00002567  00000+0  33421-3 0  9992,2 56727  86.1974 294.9302 0002399  90.7540 269.3955 14.80241228 64743,14.80241228,0.0002399,LEO
56728,IRIDIUM 174,2023,97.28,-1.0,+,86.2,Active,0,LEO,USA,USA,Unknown,Unknown,Unknown,1 56728U 23068U   24212.28200920  .00002473  00000+0  32184-3 0  9997,2 56728  86.1982 295.0080 0002526  90.4948 269.6562 14.80241472 64758,14.80241472,0.0002526,LEO
56729,IRIDIUM 178,2023,97.28,-1.0,+,86.58,Active,0,LEO,USA,USA,Unknown,Unknown,Unknown,1 56729U 23068V   24213.56102758  .00000063  00000+0  48233-5 0  9997,2 56729  86.5799 313.9705 0002512  87.7685 272.3824 14.80232426 64947,14.80232426,0.0002512,LEO
56730,IRIDIUM 179,2023,97.28,-1.0,+,86.68,Active,0,LEO,USA,USA,Unknown,Unknown,Unknown,1 56730U 23068W   24212.54156404  .00000075  00000+0  63475-5 0  9991,2 56730  86.6810 319.0866 0002368  94.5391 265.6101 14.80240631 64791,14.80240631,0.0002368,LEO
